CCSDS_OMM_VERS = 2.0
CREATION_DATE  = 
ORIGINATOR     = 

OBJECT_NAME    = SL-14 R/B
OBJECT_ID      = 1986-046B
CENTER_NAME    = EARTH
REF_FRAME      = TEME
TIME_SYSTEM    = UTC
MEAN_ELEMENT_THEORY = SGP/SGP4

EPOCH          = 2026-03-09T12:54:35.152704
MEAN_MOTION    = 14.85590147
ECCENTRICITY   = .00219619
INCLINATION    = 82.4783
RA_OF_ASC_NODE = 80.3252
ARG_OF_PERICENTER = 225.8935
MEAN_ANOMALY   = 134.0474

EPHEMERIS_TYPE = 0
CLASSIFICATION_TYPE = U
NORAD_CAT_ID   = 16792
ELEMENT_SET_NO = 999
REV_AT_EPOCH   = 12638
BSTAR          = .63515191E-4
MEAN_MOTION_DOT = .575E-5
MEAN_MOTION_DDOT = 0

CCSDS_OMM_VERS = 2.0
CREATION_DATE  = 
ORIGINATOR     = 

OBJECT_NAME    = SL-14 R/B
OBJECT_ID      = 1986-055B
CENTER_NAME    = EARTH
REF_FRAME      = TEME
TIME_SYSTEM    = UTC
MEAN_ELEMENT_THEORY = SGP/SGP4

EPOCH          = 2026-03-09T16:18:40.903776
MEAN_MOTION    = 14.85642641
ECCENTRICITY   = .00181921
INCLINATION    = 82.5202
RA_OF_ASC_NODE = 126.6837
ARG_OF_PERICENTER = 336.5476
MEAN_ANOMALY   = 145.9532

EPHEMERIS_TYPE = 0
CLASSIFICATION_TYPE = U
NORAD_CAT_ID   = 16882
ELEMENT_SET_NO = 999
REV_AT_EPOCH   = 11936
BSTAR          = .57455179E-4
MEAN_MOTION_DOT = .523E-5
MEAN_MOTION_DDOT = 0

CCSDS_OMM_VERS = 2.0
CREATION_DATE  = 
ORIGINATOR     = 

OBJECT_NAME    = AJISAI (EGS)
OBJECT_ID      = 1986-061A
CENTER_NAME    = EARTH
REF_FRAME      = TEME
TIME_SYSTEM    = UTC
MEAN_ELEMENT_THEORY = SGP/SGP4

EPOCH          = 2026-03-09T23:02:01.063392
MEAN_MOTION    = 12.44515635
ECCENTRICITY   = .00112705
INCLINATION    = 50.0087
RA_OF_ASC_NODE = 92.5172
ARG_OF_PERICENTER = 287.6933
MEAN_ANOMALY   = 156.5252

EPHEMERIS_TYPE = 0
CLASSIFICATION_TYPE = U
NORAD_CAT_ID   = 16908
ELEMENT_SET_NO = 999
REV_AT_EPOCH   = 46803
BSTAR          = -.16605877E-4
MEAN_MOTION_DOT = -.1E-5
MEAN_MOTION_DDOT = 0

CCSDS_OMM_VERS = 2.0
CREATION_DATE  = 
ORIGINATOR     = 

OBJECT_NAME    = SL-14 R/B
OBJECT_ID      = 1987-024B
CENTER_NAME    = EARTH
REF_FRAME      = TEME
TIME_SYSTEM    = UTC
MEAN_ELEMENT_THEORY = SGP/SGP4

EPOCH          = 2026-03-09T13:42:45.789120
MEAN_MOTION    = 14.86131911
ECCENTRICITY   = .0016681
INCLINATION    = 82.5247
RA_OF_ASC_NODE = 92.8750
ARG_OF_PERICENTER = 260.3480
MEAN_ANOMALY   = 99.5853

EPHEMERIS_TYPE = 0
CLASSIFICATION_TYPE = U
NORAD_CAT_ID   = 17567
ELEMENT_SET_NO = 999
REV_AT_EPOCH   = 8811
BSTAR          = .60637E-4
MEAN_MOTION_DOT = .557E-5
MEAN_MOTION_DDOT = 0

CCSDS_OMM_VERS = 2.0
CREATION_DATE  = 
ORIGINATOR     = 

OBJECT_NAME    = COSMOS 1833
OBJECT_ID      = 1987-027A
CENTER_NAME    = EARTH
REF_FRAME      = TEME
TIME_SYSTEM    = UTC
MEAN_ELEMENT_THEORY = SGP/SGP4

EPOCH          = 2026-03-09T22:20:44.116224
MEAN_MOTION    = 14.13054766
ECCENTRICITY   = .00242647
INCLINATION    = 70.9224
RA_OF_ASC_NODE = 325.5119
ARG_OF_PERICENTER = 214.1818
MEAN_ANOMALY   = 145.7742

EPHEMERIS_TYPE = 0
CLASSIFICATION_TYPE = U
NORAD_CAT_ID   = 17589
ELEMENT_SET_NO = 999
REV_AT_EPOCH   = 1035
BSTAR          = -.69280384E-4
MEAN_MOTION_DOT = -.178E-5
MEAN_MOTION_DDOT = 0

CCSDS_OMM_VERS = 2.0
CREATION_DATE  = 
ORIGINATOR     = 

OBJECT_NAME    = SL-16 R/B
OBJECT_ID      = 1987-027B
CENTER_NAME    = EARTH
REF_FRAME      = TEME
TIME_SYSTEM    = UTC
MEAN_ELEMENT_THEORY = SGP/SGP4

EPOCH          = 2026-03-09T23:23:27.614688
MEAN_MOTION    = 14.17165848
ECCENTRICITY   = .00034341
INCLINATION    = 71.0012
RA_OF_ASC_NODE = 275.8951
ARG_OF_PERICENTER = 142.0630
MEAN_ANOMALY   = 218.0736

EPHEMERIS_TYPE = 0
CLASSIFICATION_TYPE = U
NORAD_CAT_ID   = 17590
ELEMENT_SET_NO = 999
REV_AT_EPOCH   = 1538
BSTAR          = .70273857E-4
MEAN_MOTION_DOT = .94E-6
MEAN_MOTION_DDOT = 0

CCSDS_OMM_VERS = 2.0
CREATION_DATE  = 
ORIGINATOR     = 

OBJECT_NAME    = SL-14 R/B
OBJECT_ID      = 1987-038B
CENTER_NAME    = EARTH
REF_FRAME      = TEME
TIME_SYSTEM    = UTC
MEAN_ELEMENT_THEORY = SGP/SGP4

EPOCH          = 2026-03-09T16:49:27.049728
MEAN_MOTION    = 14.85369371
ECCENTRICITY   = .00196849
INCLINATION    = 82.5000
RA_OF_ASC_NODE = 296.7973
ARG_OF_PERICENTER = 160.3861
MEAN_ANOMALY   = 199.8117

EPHEMERIS_TYPE = 0
CLASSIFICATION_TYPE = U
NORAD_CAT_ID   = 17912
ELEMENT_SET_NO = 999
REV_AT_EPOCH   = 7923
BSTAR          = .59620516E-4
MEAN_MOTION_DOT = .539E-5
MEAN_MOTION_DDOT = 0

CCSDS_OMM_VERS = 2.0
CREATION_DATE  = 
ORIGINATOR     = 

OBJECT_NAME    = COSMOS 1844
OBJECT_ID      = 1987-041A
CENTER_NAME    = EARTH
REF_FRAME      = TEME
TIME_SYSTEM    = UTC
MEAN_ELEMENT_THEORY = SGP/SGP4

EPOCH          = 2026-03-09T21:29:11.135328
MEAN_MOTION    = 14.14552133
ECCENTRICITY   = .00300352
INCLINATION    = 70.8999
RA_OF_ASC_NODE = 33.7409
ARG_OF_PERICENTER = 17.4399
MEAN_ANOMALY   = 342.7747

EPHEMERIS_TYPE = 0
CLASSIFICATION_TYPE = U
NORAD_CAT_ID   = 17973
ELEMENT_SET_NO = 999
REV_AT_EPOCH   = 361
BSTAR          = -.56747314E-4
MEAN_MOTION_DOT = -.158E-5
MEAN_MOTION_DDOT = 0

CCSDS_OMM_VERS = 2.0
CREATION_DATE  = 
ORIGINATOR     = 

OBJECT_NAME    = SL-14 R/B
OBJECT_ID      = 1987-055B
CENTER_NAME    = EARTH
REF_FRAME      = TEME
TIME_SYSTEM    = UTC
MEAN_ELEMENT_THEORY = SGP/SGP4

EPOCH          = 2026-03-09T21:07:11.149824
MEAN_MOTION    = 14.85629907
ECCENTRICITY   = .00211346
INCLINATION    = 82.5030
RA_OF_ASC_NODE = 348.8521
ARG_OF_PERICENTER = 17.2140
MEAN_ANOMALY   = 342.9788

EPHEMERIS_TYPE = 0
CLASSIFICATION_TYPE = U
NORAD_CAT_ID   = 18153
ELEMENT_SET_NO = 999
REV_AT_EPOCH   = 6996
BSTAR          = .78350506E-4
MEAN_MOTION_DOT = .705E-5
MEAN_MOTION_DDOT = 0

CCSDS_OMM_VERS = 2.0
CREATION_DATE  = 
ORIGINATOR     = 

OBJECT_NAME    = COSMOS 1867
OBJECT_ID      = 1987-060A
CENTER_NAME    = EARTH
REF_FRAME      = TEME
TIME_SYSTEM    = UTC
MEAN_ELEMENT_THEORY = SGP/SGP4

EPOCH          = 2026-03-09T22:19:38.108352
MEAN_MOTION    = 14.31503080
ECCENTRICITY   = .00144918
INCLINATION    = 65.0112
RA_OF_ASC_NODE = 306.0319
ARG_OF_PERICENTER = 278.6650
MEAN_ANOMALY   = 81.2793

EPHEMERIS_TYPE = 0
CLASSIFICATION_TYPE = U
NORAD_CAT_ID   = 18187
ELEMENT_SET_NO = 999
REV_AT_EPOCH   = 1997
BSTAR          = .34837182E-4
MEAN_MOTION_DOT = -.7E-7
MEAN_MOTION_DDOT = 0

CCSDS_OMM_VERS = 2.0
CREATION_DATE  = 
ORIGINATOR     = 

OBJECT_NAME    = SL-14 R/B
OBJECT_ID      = 1988-001B
CENTER_NAME    = EARTH
REF_FRAME      = TEME
TIME_SYSTEM    = UTC
MEAN_ELEMENT_THEORY = SGP/SGP4

EPOCH          = 2026-03-09T19:23:27.101184
MEAN_MOTION    = 14.85527977
ECCENTRICITY   = .00168577
INCLINATION    = 82.5154
RA_OF_ASC_NODE = 195.2488
ARG_OF_PERICENTER = 235.3305
MEAN_ANOMALY   = 124.6323

EPHEMERIS_TYPE = 0
CLASSIFICATION_TYPE = U
NORAD_CAT_ID   = 18749
ELEMENT_SET_NO = 999
REV_AT_EPOCH   = 4204
BSTAR          = .83816284E-4
MEAN_MOTION_DOT = .749E-5
MEAN_MOTION_DDOT = 0

CCSDS_OMM_VERS = 2.0
CREATION_DATE  = 
ORIGINATOR     = 

OBJECT_NAME    = COSMOS 1933
OBJECT_ID      = 1988-020A
CENTER_NAME    = EARTH
REF_FRAME      = TEME
TIME_SYSTEM    = UTC
MEAN_ELEMENT_THEORY = SGP/SGP4

EPOCH          = 2026-03-09T22:07:36.922368
MEAN_MOTION    = 15.17984641
ECCENTRICITY   = .00038825
INCLINATION    = 82.5099
RA_OF_ASC_NODE = 250.6818
ARG_OF_PERICENTER = 179.5653
MEAN_ANOMALY   = 180.5585

EPHEMERIS_TYPE = 0
CLASSIFICATION_TYPE = U
NORAD_CAT_ID   = 18958
ELEMENT_SET_NO = 999
REV_AT_EPOCH   = 5026
BSTAR          = .26961207E-3
MEAN_MOTION_DOT = .5508E-4
MEAN_MOTION_DDOT = 0

