SL-14 R/B               
1 16792U 86046B   26068.53790686  .00000575  00000+0  63515-4 0  9995
2 16792  82.4783  80.3252 0021961 225.8935 134.0474 14.85590147126389
SL-14 R/B               
1 16882U 86055B   26068.67964009  .00000523  00000+0  57455-4 0  9991
2 16882  82.5202 126.6837 0018192 336.5476 145.9532 14.85642641119364
AJISAI (EGS)            
1 16908U 86061A   26068.95973453 -.00000100  00000+0 -16606-4 0  9997
2 16908  50.0087  92.5172 0011270 287.6933 156.5252 12.44515635468034
SL-14 R/B               
1 17567U 87024B   26068.57136330  .00000557  00000+0  60637-4 0  9999
2 17567  82.5247  92.8750 0016681 260.3480  99.5853 14.86131911 88114
COSMOS 1833             
1 17589U 87027A   26068.93106616 -.00000178  00000+0 -69280-4 0  9994
2 17589  70.9224 325.5119 0024264 214.1818 145.7742 14.13054766 10351
SL-16 R/B               
1 17590U 87027B   26068.97462517  .00000094  00000+0  70274-4 0  9995
2 17590  71.0012 275.8951 0003434 142.0630 218.0736 14.17165848 15381
SL-14 R/B               
1 17912U 87038B   26068.70100752  .00000539  00000+0  59621-4 0  9993
2 17912  82.5000 296.7973 0019684 160.3861 199.8117 14.85369371 79237
COSMOS 1844             
1 17973U 87041A   26068.89526777 -.00000158  00000+0 -56747-4 0  9998
2 17973  70.8999  33.7409 0030035  17.4399 342.7747 14.14552133  3614
SL-14 R/B               
1 18153U 87055B   26068.87999016  .00000705  00000+0  78351-4 0  9993
2 18153  82.5030 348.8521 0021134  17.2140 342.9788 14.85629907 69967
COSMOS 1867             
1 18187U 87060A   26068.93030218 -.00000007  00000+0  34837-4 0  9990
2 18187  65.0112 306.0319 0014491 278.6650  81.2793 14.31503080 19978
SL-14 R/B               
1 18749U 88001B   26068.80795256  .00000749  00000+0  83816-4 0  9999
2 18749  82.5154 195.2488 0016857 235.3305 124.6323 14.85527977 42047
COSMOS 1933             
1 18958U 88020A   26068.92195512  .00005508  00000+0  26961-3 0  9999
2 18958  82.5099 250.6818 0003882 179.5653 180.5585 15.17984641 50264
